#dP2019  5  6  0  0  0.00000000      96 __u+U ITR00 FIT  IAC
## 2052  86400.00000000   900.00000000 58609 0.0000000000000
+   92   C02C03C05C06C07C08C09C10C11C12C13C14C16E01E02E03E04
+        E05E07E08E09E11E12E13E14E15E18E19E21E24E25E26E27E30
+        E31E33E36G01G02G03G04G05G06G07G08G09G10G11G12G13G14
+        G15G16G17G18G19G20G21G22G23G24G25G26G27G28G29G30G31
+        G32R01R02R03R04R05R07R08R09R10R11R13R14R15R16R17R18
+        R19R20R21R22R23R24R26  0  0  0  0  0  0  0  0  0  0
++        12 13 12  9  8  9  8  8  8  8  8  8  9  5  6  5  6
++         6  5  5  6  6  5  5  5  6  6  5  5  5  6  5  5  6
++         5  5  6  4  3  4  4  4  4  7  4  4  4  4  4  4  4
++         4  4  4  4  4  4  4  4  4  4  4  4  4  4  4  4  4
++         4  6  6  6  6  5  6  6  6  5  5  5  5  5  5  6  6
++         6  6  5  5  6  6  8  0  0  0  0  0  0  0  0  0  0
%c M  cc GPS ccc cccc cccc cccc cccc ccccc ccccc ccccc ccccc
%c cc cc ccc ccc cccc cccc cccc cccc ccccc ccccc ccccc ccccc
%f  0.0000000  0.000000000  0.00000000000  0.000000000000000
%f  0.0000000  0.000000000  0.00000000000  0.000000000000000
%i    0    0    0    0      0      0      0      0         0
%i    0    0    0    0      0      0      0      0         0
/*                                                          
/*   RSA / INFORMATION & ANALYSIS CENTER (IAC) OF MCC       
/*   ULTRA-RAPID DETERMINATION                              
/* PCV:IGS14_2045 OL/AL:FES2004  NONE     YN ORB:CoN CLK:CoN
*  2019 05 06  3 15  0.00000000
PC02      0.000000      0.000000      0.000000    177.365112
PC03      0.000000      0.000000      0.000000    266.054023
PC05      0.000000      0.000000      0.000000   -323.497109
PC06 -13141.498592  37159.194775 -14115.470973    790.403869
PC07 -11945.223111  23078.177577  33340.070941      1.261896
PC08 -26182.917816  26576.718555 -19826.401716    154.346134
PC09  -3310.656971  41790.241463   2423.246361    740.906510
PC10   4133.697202  29487.920754  30120.642208   -726.097095
PC11  18901.607757 -14150.175048 -14780.031231   -137.169699
PC12   8914.691153  14343.563651 -22169.406052    640.933927
PC13 -10778.307830  27856.854149 -29814.114908   -695.307013
PC14  19681.560763   6507.323186  18731.411730    633.870732
PC16  -9953.409387  39460.862544 -10618.295468   -691.202511
PE01 -19927.107186   7053.849997  20712.914297   -598.605669
PE02  19882.382885  -7098.051270 -20751.172971     58.995955
PE03  12921.503126 -15754.220114  21474.209323   -162.949963
PE04   -777.554246  28620.989576  -7497.981406   -275.901193
PE05  17566.811041   6430.530931  22948.116893     62.056240
PE07 -11909.272606 -24763.023135 -10981.771913   -182.144403
PE08    455.028884 -28634.695349   7470.460149   6360.881815
PE09  12076.825508  24664.908528  11075.008628   6448.310126
PE11   9224.777004  13620.183224 -24609.950638   5698.861861
PE12 -10354.325222  22569.416944 -16087.396635   6410.334539
PE13  -9057.218400 -13661.212175  24654.964126    386.634862
PE14 -12577.884197  19822.012743   8862.307712   -555.875296
PE15   9980.029217 -22557.324450  16379.407291    911.436937
PE18  20325.578881 -14702.837759 -19118.079817   -653.943839
PE19 -13631.756359  13810.132812 -22340.621242     -6.615817
PE21 -28292.115294  -7199.182964   4867.090168   -532.545231
PE24  20048.622388  17159.864058  13377.000351   6096.234658
PE25  28298.260142   7232.670313  -4822.557690   1813.221940
PE26 -22969.173932   2981.913295  18433.378621   4602.357170
PE27 -19855.985896 -17135.573529 -13724.617912    475.751835
PE30    -18.921446 -17140.806409 -24146.652548   4894.983597
PE31   -205.483676  17003.042680  24230.119374   -464.495678
PE33 -23235.729075  18262.344846   1526.547016   -470.326338
PE36  22868.926158  -3290.153556 -18503.517640    715.707586
PG01    -42.375631  15538.449751 -21676.805444     -9.728111
PG02  20057.126883 -15227.093053   8789.377299   -206.205040
PG03   8174.600750  20598.090740 -14743.519797    188.212705
PG04  12505.576902  10837.333720  20789.508307    157.353463
PG05  10714.475138 -11128.527057  21493.017916      0.993166
PG06  25532.848200  -6361.929455  -3700.629093    213.012540
PG07      0.000000      0.000000      0.000000    -18.588034
PG08  -5554.033437  25817.165717   1487.111196   -142.511076
PG09   9861.218761  17040.158658  17782.516130    416.549913
PG10 -22423.827573  -8766.739338 -11367.260599     54.321535
PG11  -2700.127392  20987.672529 -16725.192332   -612.617461
PG12  -6066.392594 -20737.475732 -15779.163875    245.043384
PG13  12833.496020 -21709.599938   8151.194304    -64.884673
PG14 -16047.671939   8902.538967 -18814.662366    -81.671752
PG15   2324.177815 -26242.822367   -177.789769   -314.605834
PG16 -10456.085719  10244.429995  21970.617498    -37.889726
PG17  14680.098952    718.755985 -21712.977671     50.162344
PG18  -9661.643629  17574.874908 -17835.262621     50.614397
PG19  16159.921950  -7808.222859 -19907.572665   -322.427046
PG20 -22806.380540 -13668.814750  -1784.075350    524.511184
PG21 -18958.940776  -6275.050921  18241.064106   -198.457003
PG22   1351.276418  18545.450661 -18758.064369   -696.025974
PG23   2525.893402  24712.944804   9132.330811   -187.400490
PG24   3311.206804 -17190.768313 -20041.575115    -65.706679
PG25 -16818.534230 -19929.398871  -5926.799985   -753.287791
PG26 -18411.404197   2467.015006  19026.297655    194.062536
PG27 -11916.720601  20308.724639  11877.371493   -124.906972
PG28  21071.232845  11568.832450 -10583.342719    767.788444
PG29  -5058.372632 -21076.531878  15318.325738    208.597563
PG30  23244.046858   2675.895207  12765.517617    -99.312810
PG31 -25872.812217   6659.177592  -2156.938153     40.181059
PG32 -15647.456354   2316.443982 -21262.295212   -100.556599
PR01   -841.100258 -20812.552474  14719.897276     43.367776
PR02 -11221.789010 -22380.699574  -4977.543132    367.140781
PR03 -13630.662166  -9479.202449 -19335.907731     -5.270612
PR04  -7748.985578   9448.217013 -22366.305660    305.186369
PR05   2157.011869  21939.003180 -12801.023355     27.541677
PR07  13572.187140   8870.779810  19719.303135    -19.486435
PR08   8162.193315  -8726.226636  22594.837101     17.906546
PR09  17519.233837  10316.529639  15459.951134     68.154493
PR10  25091.758197   4675.385834   1179.333750     49.165504
PR11  19412.817781  -4749.647155 -15870.415524    -65.183027
PR13 -16111.551014 -10324.534040 -16885.748306    -23.310379
PR14 -25092.665256  -4410.611461  -1090.380975     38.647554
PR15 -19966.760381   4224.209743  15318.332258    101.785705
PR16  -3158.828005  10686.194265  22922.835601      9.745114
PR17 -14170.147447   2152.634813  21116.215646    225.697055
PR18 -17935.870361  15754.813561   8908.778394     -7.847289
PR19 -12603.960742  20610.344756  -8178.304567    -29.162037
PR20   1677.929775  13124.141499 -21789.818789   -377.167611
PR21  14394.960764  -2738.252425 -20874.168872    -46.388729
PR22  17758.431203 -17298.396858  -6285.295234    -17.796494
PR23   8881.771186 -20129.885895  12907.114218    226.175375
PR24  -3254.758315 -11906.429884  22301.728869   -180.116277
PR26   -133.843547  14939.979642 -20668.977982     -8.422125
EOF
